COMMENT,ORIGINATOR,NORAD_CAT_ID,OBJECT_NAME,OBJECT_TYPE,CLASSIFICATION_TYPE,INTLDES,EPOCH,EPOCH_MICROSECONDS,MEAN_MOTION,ECCENTRICITY,INCLINATION,RA_OF_ASC_NODE,ARG_OF_PERICENTER,MEAN_ANOMALY,EPHEMERIS_TYPE,ELEMENT_SET_NO,REV_AT_EPOCH,BSTAR,MEAN_MOTION_DOT,MEAN_MOTION_DDOT,FILE,TLE_LINE0,TLE_LINE1,TLE_LINE2,OBJECT_ID,OBJECT_NUMBER,SEMIMAJOR_AXIS,PERIOD,APOGEE,PERIGEE
"GENERATED VIA SPACETRACK.ORG API","JSPOC","24905","IRIDIUM 46","PAYLOAD","U","97043C","2016-01-12 20:14:23","374176","14.34221233","0.0001987","86.3993","113.9215","97.7146","262.4276","0","999","96309","0.00011181","3.33e-06","0","1979855","0 IRIDIUM 46","1 24905U 97043C   16012.84332609 +.00000333 +00000-0 +11181-3 0  9992","2 24905 086.3993 113.9215 0001987 097.7146 262.4276 14.34221233963092","1997-043C","24905","7155.792","100.402","779.079","776.235"
"GENERATED VIA SPACETRACK.ORG API","JSPOC","39624","SJ-11-06","PAYLOAD","U","14014A","2016-01-12 20:14:27","609504","14.59747952","0.0012156","98.172","70.4345","354.8896","5.2166","0","999","9520","4.8179e-05","1.84e-06","0","1979521","0 SJ-11-06","1 39624U 14014A   16012.84337511  .00000184  00000-0  48179-4 0  9992","2 39624  98.1720  70.4345 0012156 354.8896   5.2166 14.59747952 95203","2014-014A","39624","7072.124","98.647","702.586","685.393"
"GENERATED VIA SPACETRACK.ORG API","JSPOC","14175","COSMOS 1477","PAYLOAD","U","83069E","2016-01-12 20:14:27","797856","12.50404141","0.0001775","74.0272","340.9046","160.6147","220.5604","0","999","48454","-1.8687e-05","-1.9e-07","0","1979855","0 COSMOS 1477","1 14175U 83069E   16012.84337729 -.00000019 +00000-0 -18687-4 0  9993","2 14175 074.0272 340.9046 0001775 160.6147 220.5604 12.50404141484549","1983-069E","14175","7840.941","115.162","1464.198","1461.415"
"GENERATED VIA SPACETRACK.ORG API","JSPOC","27944","LARETS","PAYLOAD","U","03042F","2016-01-12 20:14:29","81760","14.63125","0.0013611","97.8953","163.2712","105.814","254.4599","0","999","65650","0.00022466","1.111e-05","0","1979532","0 LARETS","1 27944U 03042F   16012.84339215  .00001111  00000-0  22466-3 0  9997","2 27944  97.8953 163.2712 0013611 105.8140 254.4599 14.63125000656504","2003-042F","27944","7061.238","98.419","692.714","673.492"
"GENERATED VIA SPACETRACK.ORG API","JSPOC","13114","SL-14 R/B","ROCKET BODY","U","82025B","2016-01-12 20:14:33","551232","13.84649931","0.0014674","82.5396","257.597","169.6488","237.4074","0","999","70798","1.848e-05","3.6e-07","0","1979855","0 SL-14 R/B","1 13114U 82025B   16012.84344388 +.00000036 +00000-0 +18480-4 0  9993","2 13114 082.5396 257.5970 0014674 169.6488 237.4074 13.84649931707980","1982-025B","13114","7325.577","103.997","958.191","936.692"
"GENERATED VIA SPACETRACK.ORG API","JSPOC","4507","NNSS 19 (TRANSIT 19)","PAYLOAD","U","70067A","2016-01-12 20:14:40","546176","13.50592692","0.0172224","89.8277","271.7312","340.0367","70.0037","0","999","23364","0.00016238","1.23e-06","0","1979590","0 NNSS 19 (TRANSIT 19)","1 04507U 70067A   16012.84352484  .00000123  00000-0  16238-3 0  9993","2 04507  89.8277 271.7312 0172224 340.0367  70.0037 13.50592692233640","1970-067A","4507","7448.215","106.619","1198.356","941.804"
"GENERATED VIA SPACETRACK.ORG API","JSPOC","20805","SL-8 R/B","ROCKET BODY","U","90083B","2016-01-12 20:15:09","349344","13.75791502","0.0031608","82.9374","88.0044","51.8166","85.2215","0","999","27144","7.3965e-05","8.7e-07","0","1979855","0 SL-8 R/B","1 20805U 90083B   16012.84385821 +.00000087 +00000-0 +73965-4 0  9993","2 20805 082.9374 088.0044 0031608 051.8166 085.2215 13.75791502271440","1990-083B","20805","7356.988","104.667","1002.107","955.599"
"GENERATED VIA SPACETRACK.ORG API","JSPOC","31113","HAIYANG 1B","PAYLOAD","U","07010A","2016-01-12 20:15:14","89248","14.29830354","0.0014347","98.6469","68.2479","201.6078","158.45","0","999","45695","4.2629e-05","6.5e-07","0","1979605","0 HAIYANG 1B","1 31113U 07010A   16012.84391307  .00000065  00000-0  42629-4 0  9990","2 31113  98.6469  68.2479 0014347 201.6078 158.4500 14.29830354456953","2007-010A","31113","7170.434","100.711","802.587","782.012"
"GENERATED VIA SPACETRACK.ORG API","JSPOC","40072","SKYSAT 2","PAYLOAD","U","14037D","2016-01-12 20:15:15","534720","14.80723536","0.000541","98.3396","97.8055","291.468","68.5951","0","999","8182","4.8297e-05","3.14e-06","0","1979561","0 SKYSAT 2","1 40072U 14037D   16012.84392980  .00000314  00000-0  48297-4 0  9993","2 40072  98.3396  97.8055 0005410 291.4680  68.5951 14.80723536 81829","2014-037D","40072","7005.178","97.249","630.833","623.253"
"GENERATED VIA SPACETRACK.ORG API","JSPOC","1314","OPS 4682 (SNAPSHOT)","PAYLOAD","U","65027A","2016-01-12 20:15:23","334912","12.91744928","0.0031414","90.3058","270.271","136.9537","265.7878","0","999","13935","0.00011883","3.9e-07","0","1979855","0 OPS 4682 (SNAPSHOT)","1  1314U 65027A   16012.84402008 +.00000039 +00000-0 +11883-3 0  9991","2  1314 090.3058 270.2710 0031414 136.9537 265.7878 12.91744928139353","1965-027A","1314","7672.743","111.477","1318.711","1270.505"
"GENERATED VIA SPACETRACK.ORG API","JSPOC","28184","MBSAT","PAYLOAD","U","04007A","2016-01-12 20:15:25","285824","1.0027283","0.0001859","0.011","339.6679","316.4308","180.4837","0","999","4339","0","4e-07","0","1979541","0 MBSAT","1 28184U 04007A   16012.84404266  .00000040  00000-0  00000+0 0  9991","2 28184   0.0110 339.6679 0001859 316.4308 180.4837  1.00272830 43391","2004-007A","28184","42164.439","1436.081","35794.142","35778.465"
"GENERATED VIA SPACETRACK.ORG API","JSPOC","14591","COSMOS 1520 (GLONASS)","PAYLOAD","U","83127B","2016-01-12 20:15:29","920320","2.13102982","0.0025496","65.6581","93.664","183.4563","165.0401","0","999","18979","0","8e-08","0","1979855","0 COSMOS 1520 (GLONASS)","1 14591U 83127B   16012.84409630 +.00000008 +00000-0 +00000-0 0  9993","2 14591 065.6581 093.6640 0025496 183.4563 165.0401 02.13102982189796","1983-127B","14591","25507.946","675.729","19194.846","19064.776"
"GENERATED VIA SPACETRACK.ORG API","JSPOC","17144","COSMOS 1800","PAYLOAD","U","86092G","2016-01-12 20:15:42","367104","12.56988436","0.0046903","74.0128","155.0205","121.9887","30.5962","0","999","33724","-5.067e-06","-1.7e-07","0","1979855","0 COSMOS 1800","1 17144U 86092G   16012.84424036 -.00000017 +00000-0 -50670-5 0  9996","2 17144 074.0128 155.0205 0046903 121.9887 030.5962 12.56988436337243","1986-092G","17144","7813.536","114.559","1472.049","1398.753"
"GENERATED VIA SPACETRACK.ORG API","JSPOC","8352","N-1 R/B","ROCKET BODY","U","75082B","2016-01-12 20:15:43","243200","13.60771024","0.0084292","46.9896","329.5042","70.0977","310.86","0","999","547","8.7645e-06","-1.21e-06","0","1979541","0 N-1 R/B","1 08352U 75082B   16012.84425050 -.00000121  00000-0  87645-5 0  9998","2 08352  46.9896 329.5042 0084292  70.0977 310.8600 13.60771024  5477","1975-082B","8352","7411.028","105.822","1095.362","970.424"
"GENERATED VIA SPACETRACK.ORG API","JSPOC","13153","COSMOS 1356","PAYLOAD","U","82039A","2016-01-12 20:15:46","963584","15.32192166","0.0003344","81.0928","156.0666","85.2234","274.9385","0","999","83965","0.00022979","7.167e-05","0","1979591","0 COSMOS 1356","1 13153U 82039A   16012.84429356  .00007167  00000-0  22979-3 0  9999","2 13153  81.0928 156.0666 0003344  85.2234 274.9385 15.32192166839656","1982-039A","13153","6847.410","93.982","471.565","466.985"
"GENERATED VIA SPACETRACK.ORG API","JSPOC","28499","ARIANE 5 R/B","ROCKET BODY","U","04049H","2016-01-12 20:15:56","184192","14.79612088","0.0094108","98.128","85.4965","97.7895","36.5956","0","999","59685","4.6118e-05","3.13e-06","0","1979855","0 ARIANE 5 R/B","1 28499U 04049H   16012.84440028 +.00000313 +00000-0 +46118-4 0  9990","2 28499 098.1280 085.4965 0094108 097.7895 036.5956 14.79612088596859","2004-049H","28499","7008.685","97.322","696.508","564.593"
"GENERATED VIA SPACETRACK.ORG API","JSPOC","32952","BLOCK DM-SL R/B","ROCKET BODY","U","08024B","2016-01-12 20:15:58","852224","2.14621552","0.6543661","0.2873","284.3504","1.9962","8.6201","0","999","5989","0","-1.17e-06","0","1979855","0 BLOCK DM-SL R/B","1 32952U 08024B   16012.84443116 -.00000117 +00000-0 +00000-0 0  9996","2 32952 000.2873 284.3504 6543661 001.9962 008.6201 02.14621552059893","2008-024B","32952","25387.481","670.948","35622.053","2396.639"
"GENERATED VIA SPACETRACK.ORG API","JSPOC","21730","COSMOS 2159","PAYLOAD","U","91068C","2016-01-12 20:16:00","601824","12.65951845","0.0013245","82.5809","205.3149","324.3017","130.3945","0","999","12234","1.0815e-05","1.3e-07","0","1979855","0 COSMOS 2159","1 21730U 91068C   16012.84445141 +.00000013 +00000-0 +10815-4 0  9991","2 21730 082.5809 205.3149 0013245 324.3017 130.3945 12.65951845122349","1991-068C","21730","7776.611","113.748","1408.776","1388.176"
"GENERATED VIA SPACETRACK.ORG API","JSPOC","15085","COSMOS 1579","PAYLOAD","U","84069A","2016-01-12 20:16:07","506912","13.86031094","0.0062971","65.0494","242.0966","259.9143","150.5563","0","999","59820","2.0852e-05","-6.5e-07","0","1979618","0 COSMOS 1579","1 15085U 84069A   16012.84453133 -.00000065  00000-0  20852-4 0  9990","2 15085  65.0494 242.0966 0062971 259.9143 150.5563 13.86031094598200","1984-069A","15085","7320.709","103.893","988.674","896.475"
"GENERATED VIA SPACETRACK.ORG API","JSPOC","40362","YAOGAN 26","PAYLOAD","U","14088A","2016-01-12 20:16:12","165600","15.2655887","0.0005283","97.4027","92.1307","69.8602","67.315","0","999","5822","0.00018366","4.73e-05","0","1979535","0 YAOGAN 26","1 40362U 14088A   16012.84458525  .00004730  00000-0  18366-3 0  9998","2 40362  97.4027  92.1307 0005283  69.8602  67.3150 15.26558870 58223","2014-088A","40362","6864.245","94.329","489.736","482.484"
